ASRTU-1 (AO-123)        
1 61781U 24199AY  26066.98527846  .00014500  00000+0  44138-3 0  9999
2 61781  97.3153 296.5873 0012955 317.0533  42.9697 15.34023382118409
TUSUR GO (RS78S)        
1 61782U 24199AZ  26066.97533345  .00185623  00000+0  15047-2 0  9991
2 61782  97.3022 304.7130 0003715 283.7318  76.3531 15.70187906118958
SAMSAT-IONOSPHERE (RS7*)
1 61784U 24199BB  26066.99155462  .00053565  00000+0  97207-3 0  9993
2 61784  97.3115 301.0295 0008782 301.1163  58.9226 15.49377504121858
RTU MIREA 1 (RS51S)     
1 61785U 24199BC  26066.99157317  .00063772  00000+0  10807-2 0  9996
2 61785  97.3114 301.4694 0008498 296.6958  63.3424 15.51278623118737
TEVEL2-4                
1 63213U 25052D   26066.92935387  .00030137  00000+0  10108-2 0  9990
2 63213  97.4015 323.3634 0004663  99.0139 261.1630 15.30834293 54609
TEVEL2-5                
1 63214U 25052E   26066.67868227  .00028087  00000+0  94637-3 0  9992
2 63214  97.4018 323.0868 0004634  99.6342 260.5423 15.30699886 54564
TEVEL2-6                
1 63215U 25052F   26066.94994662  .00028808  00000+0  97128-3 0  9995
2 63215  97.4017 323.3429 0004735  99.8966 260.2810 15.30673947 54608
TEVEL2-1                
1 63217U 25052H   26066.68615230  .00026611  00000+0  90969-3 0  9995
2 63217  97.3994 322.8138 0004715 108.9335 251.2417 15.30241533 54553
TEVEL2-3                
1 63218U 25052J   26066.94533434  .00028035  00000+0  95661-3 0  9996
2 63218  97.3997 323.0835 0004633 109.3357 250.8385 15.30291707 54593
TEVEL2-2                
1 63219U 25052K   26066.68681432  .00027132  00000+0  92731-3 0  9992
2 63219  97.3991 322.8159 0004613 109.6491 250.5248 15.30244650 54550
TEVEL2-9                
1 63237U 25052AD  26066.67297420  .00025791  00000+0  92851-3 0  9993
2 63237  97.4052 322.3754 0007906 130.6360 229.5569 15.28537881 54507
TEVEL2-7                
1 63238U 25052AE  26066.76246844  .00024853  00000+0  90066-3 0  9992
2 63238  97.4057 322.4166 0008021 129.5676 230.6274 15.28328365 54519
TEVEL2-8                
1 63239U 25052AF  26066.70398902  .00025086  00000+0  90976-3 0  9999
2 63239  97.4058 322.3395 0007956 130.3857 229.8079 15.28302807 54506
HADES-ICM               
1 63492U 25052BN  26066.70483550  .00178137  00000+0  24886-2 0  9996
2 63492  97.3948 327.0805 0008857 114.8734 245.3442 15.56201240 54837
INNOSAT 16 (RS92S7)     
1 64878U 25155C   26067.00968053  .00010608  00000+0  43804-3 0  9999
2 64878  97.4467  34.6192 0010805 171.1544 188.9885 15.24149794 65255
GEOSCAN 6 (RS92S6)      
1 64879U 25155D   26067.01238167  .00017473  00000+0  64239-3 0  9999
2 64879  97.4465  35.3959 0008554 159.8330 200.3249 15.27924399 65301
GEOSCAN 1 (RS92S1)      
1 64880U 25155E   26066.98316154  .00020165  00000+0  73131-3 0  9992
2 64880  97.4466  35.4391 0008455 159.9825 200.1748 15.28344580 65306
239ALFEROV (RS61S)      
1 64881U 25155F   26067.01055094  .00024876  00000+0  86053-3 0  9991
2 64881  97.4468  35.7366 0008186 157.5503 202.6097 15.29849295 65322
GEOSCAN 2 (RS92S2)      
1 64890U 25155Q   26066.93039100  .00018173  00000+0  65364-3 0  9996
2 64890  97.4463  35.4965 0008282 147.0334 213.1424 15.28639533 65302
GEOSCAN 5 (RS92S5)      
1 64891U 25155R   26067.02107656  .00023488  00000+0  80481-3 0  9992
2 64891  97.4462  35.8446 0006793 160.0875 200.0632 15.30180487 65331
GEOSCAN 4 (RS92S4)      
1 64892U 25155S   26067.01357181  .00024462  00000+0  83529-3 0  9991
2 64892  97.4464  35.8612 0006813 160.7234 199.4266 15.30285417 65331
GEOSCAN 3 (RS92S3)      
1 64893U 25155T   26066.99296054  .00029372  00000+0  96217-3 0  9992
2 64893  97.4457  36.0280 0006478 160.0528 200.0967 15.31592735 65347
INNOSAT 3 (RS92S0)      
1 64894U 25155U   26066.96625587  .00049629  00000+0  13862-2 0  9998
2 64894  97.4428  36.6382 0006234 151.3714 208.7874 15.36531086 65388
